*******************************************************************************
 Revised: Aug 29, 2013                SEMB-L2                                32
                      (Sun & Earth-Moon Barycenter Lagrange 2)

  #1) The Sun & Earth-Moon Barycenter Lagrange-2 (L2) point is a location 
       where the Earth's gravitational field partially counters that of the 
       Sun.

  #2) This L2 point is about 1.5 million km (~900,000 miles) away from the 
       Earth, opposite the direction of the Sun, or slightly less than one 
       percent of the Earth-Sun distance (four times the distance from Earth 
       to the Moon) 

  #3) L2 has been selected as the location of the next generation James Webb 
       Space Telescope, was used by the Genesis spacecraft on the return to 
       Earth, and is (or will be) used for WMAP, Herschel, and Planck 
       spacecraft. 

 Time-span available: 1900-Jan-01 to 2151-Jan-01
*******************************************************************************


*******************************************************************************
Ephemeris / WWW_USER Fri Dec  5 05:45:16 2025 Pasadena, USA      / Horizons    
*******************************************************************************
Target body name: SEMB-L2 (32)                    {source: Sun-EMB_L2}
Center body name: Sun (10)                        {source: DE441}
Center-site name: BODYCENTRIC
*******************************************************************************
Start time      : A.D. 2041-Jan-01 00:00:00.0000 UT      
Stop  time      : A.D. 2045-Jan-01 00:00:00.0000 UT      
Step-size       : 60 minutes
*******************************************************************************
Target pole/equ : undefined
Target radii    : undefined                                                    
Center geodetic : 0.0, 0.0, -695700.0             {E-lon(deg),Lat(deg),Alt(km)}
Center cylindric: 0.0, 0.0, 0.0                   {E-lon(deg),Dxy(km),Dz(km)}
Center pole/equ : IAU_SUN                         {East-longitude positive}
Center radii    : 695700.0, 695700.0, 695700.0 km {Equator_a, b, pole_c}       
Target primary  :         0
Vis. interferer : None
Rel. light bend : Sun                             {source: DE441}
Rel. lght bnd GM: 1.3271E+11 km^3/s^2                                          
Atmos refraction: NO (AIRLESS)
RA format       : HMS
Time format     : BOTH
Calendar mode   : Mixed Julian/Gregorian
EOP file        : eop.251204.p260302                                           
EOP coverage    : DATA-BASED 1962-JAN-20 TO 2025-DEC-04. PREDICTS-> 2026-MAR-01
Units conversion: 1 au= 149597870.700 km, c= 299792.458 km/s, 1 day= 86400.0 s 
Table cut-offs 1: Elevation (-90.0deg=NO ),Airmass     n.a.    , Daylight (NO )
Table cut-offs 2: Solar elongation (  0.0,180.0=NO ),Local Hour Angle( 0.0=NO )
Table cut-offs 3: RA/DEC angular rate (     0.0=NO )                           
**************************************************************************************************************
 Date__(UT)__HR:MN Date_________JDUT     R.A._____(ICRF)_____DEC  X_(sat-primary)_Y SatPANG  hEcl-Lon hEcl-Lat
**************************************************************************************************************
$$SOE
 2042-Jan-18 12:00 2466903.000000000     08 00 04.86 +20 34 15.5  -350086. -6189.45 264.697  117.9308  -0.0046
 2042-Jan-18 13:00 2466903.041666667     08 00 15.51 +20 33 45.1  -349945. -6204.74 264.695  117.9732  -0.0046
 2042-Jan-18 14:00 2466903.083333333     08 00 26.17 +20 33 14.6  -349804. -6220.01 264.694  118.0157  -0.0046
 2042-Jan-18 15:00 2466903.125000000     08 00 36.82 +20 32 44.1  -349662. -6235.28 264.693  118.0581  -0.0046
 2042-Jan-18 16:00 2466903.166666667     08 00 47.47 +20 32 13.6  -349521. -6250.54 264.691  118.1005  -0.0046
 2042-Jan-18 17:00 2466903.208333333     08 00 58.12 +20 31 43.0  -349380. -6265.78 264.690  118.1429  -0.0046
 2042-Jan-18 18:00 2466903.250000000     08 01 08.77 +20 31 12.4  -349238. -6281.02 264.689  118.1853  -0.0046
 2042-Jan-18 19:00 2466903.291666667     08 01 19.42 +20 30 41.8  -349097. -6296.25 264.687  118.2277  -0.0046
 2042-Jan-18 20:00 2466903.333333333     08 01 30.07 +20 30 11.1  -348956. -6311.46 264.686  118.2702  -0.0046
 2042-Jan-18 21:00 2466903.375000000     08 01 40.71 +20 29 40.4  -348814. -6326.67 264.684  118.3126  -0.0046
 2042-Jan-18 22:00 2466903.416666667     08 01 51.36 +20 29 09.6  -348673. -6341.87 264.683  118.3550  -0.0046
 2042-Jan-18 23:00 2466903.458333333     08 02 02.00 +20 28 38.8  -348532. -6357.06 264.682  118.3974  -0.0046
 2042-Jan-19 00:00 2466903.500000000     08 02 12.64 +20 28 08.0  -348390. -6372.24 264.680  118.4398  -0.0046
 2042-Jan-19 01:00 2466903.541666667     08 02 23.28 +20 27 37.1  -348249. -6387.41 264.679  118.4822  -0.0046
 2042-Jan-19 02:00 2466903.583333333     08 02 33.92 +20 27 06.2  -348107. -6402.57 264.678  118.5246  -0.0046
 2042-Jan-19 03:00 2466903.625000000     08 02 44.56 +20 26 35.2  -347966. -6417.72 264.676  118.5671  -0.0046
 2042-Jan-19 04:00 2466903.666666667     08 02 55.20 +20 26 04.2  -347825. -6432.86 264.675  118.6095  -0.0046
 2042-Jan-19 05:00 2466903.708333333     08 03 05.83 +20 25 33.1  -347683. -6447.99 264.674  118.6519  -0.0046
 2042-Jan-19 06:00 2466903.750000000     08 03 16.47 +20 25 02.0  -347542. -6463.11 264.672  118.6943  -0.0046
 2042-Jan-19 07:00 2466903.791666667     08 03 27.10 +20 24 30.9  -347401. -6478.22 264.671  118.7367  -0.0046
 2042-Jan-19 08:00 2466903.833333333     08 03 37.73 +20 23 59.7  -347259. -6493.32 264.670  118.7791  -0.0046
 2042-Jan-19 09:00 2466903.875000000     08 03 48.36 +20 23 28.5  -347118. -6508.42 264.668  118.8215  -0.0046
 2042-Jan-19 10:00 2466903.916666667     08 03 58.99 +20 22 57.3  -346977. -6523.50 264.667  118.8640  -0.0046
 2042-Jan-19 11:00 2466903.958333333     08 04 09.62 +20 22 26.0  -346835. -6538.57 264.665  118.9064  -0.0046
 2042-Jan-19 12:00 2466904.000000000     08 04 20.24 +20 21 54.7  -346694. -6553.63 264.664  118.9488  -0.0046
 2042-Jan-19 13:00 2466904.041666667     08 04 30.87 +20 21 23.3  -346553. -6568.68 264.663  118.9912  -0.0046
 2042-Jan-19 14:00 2466904.083333333     08 04 41.49 +20 20 51.9  -346411. -6583.73 264.661  119.0336  -0.0046
 2042-Jan-19 15:00 2466904.125000000     08 04 52.12 +20 20 20.5  -346270. -6598.76 264.660  119.0760  -0.0046
 2042-Jan-19 16:00 2466904.166666667     08 05 02.74 +20 19 49.0  -346129. -6613.78 264.659  119.1184  -0.0046
 2042-Jan-19 17:00 2466904.208333333     08 05 13.36 +20 19 17.4  -345987. -6628.80 264.657  119.1608  -0.0046
 2042-Jan-19 18:00 2466904.250000000     08 05 23.98 +20 18 45.9  -345846. -6643.80 264.656  119.2032  -0.0046
 2042-Jan-19 19:00 2466904.291666667     08 05 34.60 +20 18 14.3  -345704. -6658.79 264.655  119.2456  -0.0046
 2042-Jan-19 20:00 2466904.333333333     08 05 45.21 +20 17 42.6  -345563. -6673.78 264.653  119.2881  -0.0046
 2042-Jan-19 21:00 2466904.375000000     08 05 55.83 +20 17 10.9  -345422. -6688.75 264.652  119.3305  -0.0046
 2042-Jan-19 22:00 2466904.416666667     08 06 06.44 +20 16 39.2  -345280. -6703.72 264.651  119.3729  -0.0046
 2042-Jan-19 23:00 2466904.458333333     08 06 17.05 +20 16 07.4  -345139. -6718.67 264.649  119.4153  -0.0046
 2042-Jan-20 00:00 2466904.500000000     08 06 27.67 +20 15 35.6  -344998. -6733.62 264.648  119.4577  -0.0046
 2042-Jan-20 01:00 2466904.541666667     08 06 38.28 +20 15 03.8  -344856. -6748.55 264.647  119.5001  -0.0046
 2042-Jan-20 02:00 2466904.583333333     08 06 48.88 +20 14 31.9  -344715. -6763.48 264.645  119.5425  -0.0046
 2042-Jan-20 03:00 2466904.625000000     08 06 59.49 +20 14 00.0  -344573. -6778.39 264.644  119.5849  -0.0046
 2042-Jan-20 04:00 2466904.666666667     08 07 10.10 +20 13 28.0  -344432. -6793.30 264.643  119.6273  -0.0046
 2042-Jan-20 05:00 2466904.708333333     08 07 20.70 +20 12 56.0  -344291. -6808.19 264.641  119.6697  -0.0046
 2042-Jan-20 06:00 2466904.750000000     08 07 31.31 +20 12 24.0  -344149. -6823.08 264.640  119.7121  -0.0045
 2042-Jan-20 07:00 2466904.791666667     08 07 41.91 +20 11 51.9  -344008. -6837.95 264.638  119.7545  -0.0045
 2042-Jan-20 08:00 2466904.833333333     08 07 52.51 +20 11 19.8  -343867. -6852.82 264.637  119.7969  -0.0045
 2042-Jan-20 09:00 2466904.875000000     08 08 03.11 +20 10 47.6  -343725. -6867.67 264.636  119.8393  -0.0045
 2042-Jan-20 10:00 2466904.916666667     08 08 13.71 +20 10 15.4  -343584. -6882.52 264.634  119.8818  -0.0045
 2042-Jan-20 11:00 2466904.958333333     08 08 24.31 +20 09 43.1  -343443. -6897.35 264.633  119.9242  -0.0045
 2042-Jan-20 12:00 2466905.000000000     08 08 34.90 +20 09 10.9  -343301. -6912.18 264.632  119.9666  -0.0045
 2042-Jan-20 13:00 2466905.041666667     08 08 45.50 +20 08 38.5  -343160. -6926.99 264.630  120.0090  -0.0045
 2042-Jan-20 14:00 2466905.083333333     08 08 56.09 +20 08 06.2  -343018. -6941.80 264.629  120.0514  -0.0045
 2042-Jan-20 15:00 2466905.125000000     08 09 06.68 +20 07 33.8  -342877. -6956.60 264.628  120.0938  -0.0045
 2042-Jan-20 16:00 2466905.166666667     08 09 17.27 +20 07 01.3  -342736. -6971.38 264.626  120.1362  -0.0045
 2042-Jan-20 17:00 2466905.208333333     08 09 27.86 +20 06 28.9  -342594. -6986.16 264.625  120.1786  -0.0045
 2042-Jan-20 18:00 2466905.250000000     08 09 38.45 +20 05 56.4  -342453. -7000.92 264.624  120.2210  -0.0045
 2042-Jan-20 19:00 2466905.291666667     08 09 49.04 +20 05 23.8  -342311. -7015.68 264.622  120.2634  -0.0045
 2042-Jan-20 20:00 2466905.333333333     08 09 59.62 +20 04 51.2  -342170. -7030.42 264.621  120.3058  -0.0045
 2042-Jan-20 21:00 2466905.375000000     08 10 10.21 +20 04 18.6  -342029. -7045.16 264.620  120.3482  -0.0045
 2042-Jan-20 22:00 2466905.416666667     08 10 20.79 +20 03 45.9  -341887. -7059.89 264.618  120.3906  -0.0045
 2042-Jan-20 23:00 2466905.458333333     08 10 31.37 +20 03 13.2  -341746. -7074.60 264.617  120.4330  -0.0045
